#dP2024  9 14  0  0  0.00000000      96 __u+U IGS20 EXT  IAC
## 2331 518400.00000000   900.00000000 60567 0.0000000000000
+   52   G02G03G04G05G06G07G08G09G10G11G12G13G14G15G16G17G19
+        G20G21G22G23G24G25G26G27G28G29G30G31G32R01R02R03R04
+        R05R07R08R09R11R12R14R15R16R17R18R19R20R21R22R24R25
+        R26  0  0  0  0  0  0  0  0  0  0  0  0  0  0  0  0
+          0  0  0  0  0  0  0  0  0  0  0  0  0  0  0  0  0
++         7  6  7  7  7  7  7  7  7  8  7  7  7  7  8  7  8
++         7  7  7  7  9  7  7  7  8  8  7  8  6  7  7  7  8
++         8  8  7  8  8  8  8  8  7  7  7 10 10  7  9  8  7
++         8  0  0  0  0  0  0  0  0  0  0  0  0  0  0  0  0
++         0  0  0  0  0  0  0  0  0  0  0  0  0  0  0  0  0
%c M  cc GPS ccc cccc cccc cccc cccc ccccc ccccc ccccc ccccc
%c cc cc ccc ccc cccc cccc cccc cccc ccccc ccccc ccccc ccccc
%f  0.0000000  0.000000000  0.00000000000  0.000000000000000
%f  0.0000000  0.000000000  0.00000000000  0.000000000000000
%i    0    0    0    0      0      0      0      0         0
%i    0    0    0    0      0      0      0      0         0
/* IAC                                ULTRA-RAPID PREDICTION
/* S/V CLOCKS ARE ALIGNED TO GNSS TIME                      
/* G:C1WC2W R:C1PC2P E:C1XC5X C:C2IC6I J:C1CC2S             
/* PCV:IGS20_2317 OL/AL:FES2004  NONE     YN ORB:CoN CLK:CoN
*  2024 09 14  2 30  0.00000000
PG02  11036.118775 -20388.825912 -12182.280684   -358.557015
PG03  -1467.960544 -16157.716485 -21219.342156    536.856065
PG04   1053.925208 -26184.277345  -3808.362648    443.220839
PG05 -15322.616611   8431.539167  19826.254495   -186.512669
PG06 -20933.883670   1444.526830 -16282.448318     32.453333
PG07  -6474.590565 -14486.922910  21786.674214    -38.181144
PG08   7591.195121 -20706.490373  14367.059508    351.640111
PG09  -7494.041183 -24610.895719   6380.645291    355.534910
PG10  24528.605432  10606.830097   -873.241069   -124.537245
PG11 -23292.824919  12211.829857  -3419.377646   -734.289815
PG12  -3384.291221  15373.719899 -21676.828791   -537.873072
PG13 -13198.385236  13427.131011  18409.300905    676.347455
PG14 -23072.598661 -13174.910160   2516.001697    495.042106
PG15  -4647.378992  21964.338293  13543.808121    204.011646
PG16  19416.656605  -3236.509179  17699.168235   -181.667029
PG17 -13235.726908 -13000.962367 -18520.677269    627.499038
PG19 -14952.218651  -4378.533929 -21707.978498    537.753951
PG20 -23160.962814   3246.893101  12511.387238    370.664132
PG21  15122.652630 -19731.396971  -7251.339980    101.797352
PG22 -24006.694016  -9340.151715  -5373.477891    -61.604329
PG23  18205.937865  15906.539984  11276.732001    319.634365
PG24 -11578.020451  21105.229862 -11196.934498   -486.703997
PG25  10095.725403  17885.423051 -17323.019025    499.613322
PG26  25439.545692   3190.415615   7485.317773     79.421138
PG27  13090.620515 -10523.807826  20178.252950    -33.836187
PG28  19896.320735    275.267391 -17607.266292   -410.266235
PG29   3333.200616  25954.312957   4102.505396   -578.009228
PG30 -16139.631787  -6755.376906  20199.806945   -321.748869
PG31  23832.113384  -9155.993062  -8241.233387   -224.730547
PG32  14491.969552  11405.286302 -18974.469116   -597.380642
PR01  -8888.563850 -23056.057945  -6353.565131     97.712045
PR02 -14322.975225 -18147.009005  10738.421839    -24.651787
PR03 -12719.834212  -2449.037009  22002.029464    107.508500
PR04  -4108.255312  13840.972891  21056.716003    254.572460
PR05   6517.838497  23031.193097   8863.502633    137.616510
PR07  12543.307508   2025.221024 -22094.280202     90.860882
PR08   3912.881813 -14082.340912 -20840.798268     -6.397838
PR09  20563.012611   7126.665657 -13213.164755    209.005188
PR11  17159.501459  -7389.862392  17369.619749     11.907386
PR12  -3336.725648 -11116.541208  22741.040650     44.816876
PR14 -25284.072314    454.694601  -3414.712111     26.908661
PR15 -15774.573912   7959.920067 -18378.353359     75.898749
PR16   3151.394916  10943.258976 -22808.140355     29.107113
PR17 -16011.909201   9524.568923 -17386.051168    121.791847
PR18 -15450.467633  20126.185986  -2797.370303    161.934008
PR19  -8846.235584  20829.996420  11756.785063   -291.272686
PR20   6806.322321   8207.685548  23184.583329   -119.029588
PR21  15916.714208  -8858.579696  17876.933665   -134.260971
PR22  15584.020809 -20127.448464   1642.651711     47.434861
PR24  -7920.016739  -7674.655438 -22982.695814    -71.930345
PR25  16667.353107  -9137.148818  17033.630218   -100.386231
PR26   4792.076077 -12847.475659 -21497.997507     26.253052
*  2024 09 14  2 45  0.00000000
PG02  12177.712615 -21103.378225  -9691.529722   -358.549888
PG03    779.704060 -15249.356922 -21912.524552    536.867879
PG04   1354.171269 -25610.563646  -6599.181227    443.227265
PG05 -17374.531470   7576.290064  18450.396817   -186.513753
PG06 -19411.349826    190.302726 -18111.697945     32.429929
PG07  -4557.398665 -15868.018859  21250.694205    -38.177119
PG08   8107.580350 -18972.785407  16365.830222    351.651834
PG09  -7327.795404 -25226.246093   3600.848639    355.549346
PG10  24429.308767  10737.596541   2009.739741   -124.548279
PG11 -22971.959544  11699.220319  -6219.285699   -734.293652
PG12  -5572.945865  14303.405330 -21955.110647   -537.875559
PG13 -13289.963155  11191.928136  19791.084090    676.349312
PG14 -22558.243404 -13251.184723   5279.994270    495.049812
PG15  -5389.658441  20347.582249  15580.481356    204.015634
PG16  21092.795594  -2196.725158  15923.412643   -181.657892
PG17 -13224.362969 -15112.626914 -16875.362171    627.488934
PG19 -14976.329069  -6787.393374 -21095.437208    537.758390
PG20 -24368.661775   2735.792660  10077.807778    370.663811
PG21  15887.955524 -19988.651526  -4441.199996    101.796710
PG22 -24321.356036  -9822.568480  -2549.670399    -61.607726
PG23  16834.487083  15538.510676  13654.338563    319.641937
PG24 -12593.651383  21626.839553  -8695.199492   -486.703801
PG25   8180.183509  17277.894579 -18886.557498    499.613356
PG26  26031.678585   3696.978057   4831.757420     79.413513
PG27  13517.154893  -8133.759478  21011.477815    -33.836328
PG28  18354.034625   1706.381289 -19136.316952   -410.278781
PG29   3111.666623  26277.796364   1243.344427   -578.007013
PG30 -14337.442017  -8232.620294  20977.880181   -321.742435
PG31  23110.546201  -8365.162278 -10779.027649   -224.730183
PG32  14654.945441  13518.644842 -17433.514025   -597.377411
PR01  -8525.327789 -22146.470992  -9371.754485     97.713155
PR02 -14989.021848 -19084.572881   7781.458407    -24.651944
PR03 -14020.633478  -4740.061688  20796.973350    107.509170
PR04  -5288.909628  11451.072383  22197.161029    254.574028
PR05   6075.634106  21827.936779  11750.743679    137.616967
PR07  13855.436730   4344.068544 -20953.030505     90.861576
PR08   5119.243841 -11712.326515 -22013.441935     -6.397858
PR09  18774.331253   7070.411318 -15679.283635    209.007089
PR11  19162.532764  -7456.932379  15094.632803     11.906440
PR12   -521.888629 -11038.946142  23017.204851     44.817290
PR14 -25512.393732    569.137487   -228.896177     26.908670
PR15 -17918.366232   7992.035253 -16283.259699     75.898390
PR16    318.206523  10876.345687 -23057.180474     29.107370
PR17 -14710.054031   7658.116834 -19350.769557    121.794883
PR18 -14984.981510  19779.156092  -5975.143906    161.935667
PR19  -9406.972381  21990.270545   8847.073213   -291.273887
PR20   5228.346820  10556.127232  22639.502681   -119.029996
PR21  14565.321687  -6964.770152  19764.463159   -134.263778
PR22  15240.330777 -19882.614084   4823.670088     47.426704
PR24  -6449.523846 -10071.770765 -22514.800325    -71.931705
PR25  15340.220745  -7351.828276  19026.324726   -100.382909
PR26   6047.500420 -10437.738477 -22462.711378     26.264915
EOF
